{
  "type": "FeatureCollection",
  "features": [
    {
      "type": "Feature",
      "properties": {
        "norad_id": 66344,
        "name": "STARLINK-35511",
        "group": "last-30-days",
        "lat": -35.09828048020791,
        "lon": -14.156571472896166,
        "alt_km": 416.10706019515055,
        "timestamp": "2025-12-04T03:47:53.334306+00:00",
        "meta_object_name": "STARLINK-35511",
        "meta_object_id": "2025-253AB",
        "meta_epoch": "2025-12-02T21:07:45.648480",
        "meta_mean_motion": 15.50611623,
        "meta_eccentricity": 0.00016192,
        "meta_inclination": 42.9999,
        "meta_ra_of_asc_node": 42.2743,
        "meta_arg_of_pericenter": 282.3488,
        "meta_mean_anomaly": 77.7191,
        "meta_ephemeris_type": 0,
        "meta_classification_type": "U",
        "meta_norad_cat_id": 66344,
        "meta_element_set_no": 999,
        "meta_rev_at_epoch": 540,
        "meta_bstar": 0.0017748434,
        "meta_mean_motion_dot": 0.00105314,
        "meta_mean_motion_ddot": 0,
        "tle_line1": "1 66344U 25253AB  25336.88038945  .00105314  00000+0  17748-2 0  9996",
        "tle_line2": "2 66344  42.9999  42.2743 0001619 282.3488  77.7191 15.50611623  5402"
      },
      "geometry": {
        "type": "Point",
        "coordinates": [
          -14.156571472896166,
          -35.09828048020791
        ]
      }
    },
    {
      "type": "Feature",
      "properties": {
        "norad_id": 66345,
        "name": "STARLINK-35440",
        "group": "last-30-days",
        "lat": -41.98716672170593,
        "lon": -40.12489193914466,
        "alt_km": 436.18328975855,
        "timestamp": "2025-12-04T03:47:53.334317+00:00",
        "meta_object_name": "STARLINK-35440",
        "meta_object_id": "2025-253AC",
        "meta_epoch": "2025-12-03T12:00:02.998944",
        "meta_mean_motion": 15.4704399,
        "meta_eccentricity": 7.88e-05,
        "meta_inclination": 43,
        "meta_ra_of_asc_node": 38.6729,
        "meta_arg_of_pericenter": 276.8352,
        "meta_mean_anomaly": 297.5022,
        "meta_ephemeris_type": 0,
        "meta_classification_type": "U",
        "meta_norad_cat_id": 66345,
        "meta_element_set_no": 999,
        "meta_rev_at_epoch": 544,
        "meta_bstar": -0.044193,
        "meta_mean_motion_dot": -0.02037989,
        "meta_mean_motion_ddot": 0,
        "tle_line1": "1 66345U 25253AC  25337.50003471 -.02037989  00000+0 -44193-1 0  9992",
        "tle_line2": "2 66345  43.0000  38.6729 0000788 276.8352 297.5022 15.47043990  5446"
      },
      "geometry": {
        "type": "Point",
        "coordinates": [
          -40.12489193914466,
          -41.98716672170593
        ]
      }
    },
    {
      "type": "Feature",
      "properties": {
        "norad_id": 66346,
        "name": "STARLINK-35482",
        "group": "last-30-days",
        "lat": -36.104822957972694,
        "lon": -16.707637508069332,
        "alt_km": 416.76701508775204,
        "timestamp": "2025-12-04T03:47:53.334327+00:00",
        "meta_object_name": "STARLINK-35482",
        "meta_object_id": "2025-253AD",
        "meta_epoch": "2025-12-03T04:52:02.600832",
        "meta_mean_motion": 15.50595859,
        "meta_eccentricity": 0.00012786,
        "meta_inclination": 42.9992,
        "meta_ra_of_asc_node": 40.3922,
        "meta_arg_of_pericenter": 264.1211,
        "meta_mean_anomaly": 95.9503,
        "meta_ephemeris_type": 0,
        "meta_classification_type": "U",
        "meta_norad_cat_id": 66346,
        "meta_element_set_no": 999,
        "meta_rev_at_epoch": 545,
        "meta_bstar": 0.0016158403,
        "meta_mean_motion_dot": 0.00095675,
        "meta_mean_motion_ddot": 0,
        "tle_line1": "1 66346U 25253AD  25337.20280788  .00095675  00000+0  16158-2 0  9991",
        "tle_line2": "2 66346  42.9992  40.3922 0001278 264.1211  95.9503 15.50595859  5454"
      },
      "geometry": {
        "type": "Point",
        "coordinates": [
          -16.707637508069332,
          -36.104822957972694
        ]
      }
    },
    {
      "type": "Feature",
      "properties": {
        "norad_id": 66347,
        "name": "STARLINK-35438",
        "group": "last-30-days",
        "lat": -33.458332508170386,
        "lon": -10.38433327916603,
        "alt_km": 412.9383608354228,
        "timestamp": "2025-12-04T03:47:53.334337+00:00",
        "meta_object_name": "STARLINK-35438",
        "meta_object_id": "2025-253AE",
        "meta_epoch": "2025-12-02T11:50:43.167552",
        "meta_mean_motion": 15.50748022,
        "meta_eccentricity": 0.00051686,
        "meta_inclination": 43.0001,
        "meta_ra_of_asc_node": 44.5284,
        "meta_arg_of_pericenter": 271.7306,
        "meta_mean_anomaly": 88.2962,
        "meta_ephemeris_type": 0,
        "meta_classification_type": "U",
        "meta_norad_cat_id": 66347,
        "meta_element_set_no": 999,
        "meta_rev_at_epoch": 534,
        "meta_bstar": 0.0023229767,
        "meta_mean_motion_dot": 0.00139273,
        "meta_mean_motion_ddot": 0,
        "tle_line1": "1 66347U 25253AE  25336.49355518  .00139273  00000+0  23230-2 0  9998",
        "tle_line2": "2 66347  43.0001  44.5284 0005168 271.7306  88.2962 15.50748022  5340"
      },
      "geometry": {
        "type": "Point",
        "coordinates": [
          -10.38433327916603,
          -33.458332508170386
        ]
      }
    },
    {
      "type": "Feature",
      "properties": {
        "norad_id": 66348,
        "name": "STARLINK-35849",
        "group": "last-30-days",
        "lat": 23.76739395444779,
        "lon": 118.45093478972193,
        "alt_km": 384.0507580186404,
        "timestamp": "2025-12-04T03:47:53.334348+00:00",
        "meta_object_name": "STARLINK-35849",
        "meta_object_id": "2025-254A",
        "meta_epoch": "2025-12-03T12:00:02.998944",
        "meta_mean_motion": 15.63067034,
        "meta_eccentricity": 0.0001249,
        "meta_inclination": 53.159,
        "meta_ra_of_asc_node": 320.9366,
        "meta_arg_of_pericenter": 64.1769,
        "meta_mean_anomaly": 342.9876,
        "meta_ephemeris_type": 0,
        "meta_classification_type": "U",
        "meta_norad_cat_id": 66348,
        "meta_element_set_no": 999,
        "meta_rev_at_epoch": 543,
        "meta_bstar": -0.024983,
        "meta_mean_motion_dot": -0.02031494,
        "meta_mean_motion_ddot": 0,
        "tle_line1": "1 66348U 25254A   25337.50003471 -.02031494  00000+0 -24983-1 0  9996",
        "tle_line2": "2 66348  53.1590 320.9366 0001249  64.1769 342.9876 15.63067034  5436"
      },
      "geometry": {
        "type": "Point",
        "coordinates": [
          118.45093478972193,
          23.76739395444779
        ]
      }
    },
    {
      "type": "Feature",
      "properties": {
        "norad_id": 66349,
        "name": "STARLINK-35848",
        "group": "last-30-days",
        "lat": 22.312920229435587,
        "lon": 119.80554056685331,
        "alt_km": 384.3169010874317,
        "timestamp": "2025-12-04T03:47:53.334359+00:00",
        "meta_object_name": "STARLINK-35848",
        "meta_object_id": "2025-254B",
        "meta_epoch": "2025-12-03T12:00:02.998944",
        "meta_mean_motion": 15.63067341,
        "meta_eccentricity": 0.0001155,
        "meta_inclination": 53.1592,
        "meta_ra_of_asc_node": 320.9322,
        "meta_arg_of_pericenter": 63.9487,
        "meta_mean_anomaly": 345.1327,
        "meta_ephemeris_type": 0,
        "meta_classification_type": "U",
        "meta_norad_cat_id": 66349,
        "meta_element_set_no": 999,
        "meta_rev_at_epoch": 543,
        "meta_bstar": -0.024984,
        "meta_mean_motion_dot": -0.02031551,
        "meta_mean_motion_ddot": 0,
        "tle_line1": "1 66349U 25254B   25337.50003471 -.02031551  00000+0 -24984-1 0  9992",
        "tle_line2": "2 66349  53.1592 320.9322 0001155  63.9487 345.1327 15.63067341  5438"
      },
      "geometry": {
        "type": "Point",
        "coordinates": [
          119.80554056685331,
          22.312920229435587
        ]
      }
    },
    {
      "type": "Feature",
      "properties": {
        "norad_id": 66350,
        "name": "STARLINK-35829",
        "group": "last-30-days",
        "lat": 20.848098061619908,
        "lon": 121.13160359269402,
        "alt_km": 384.550109468556,
        "timestamp": "2025-12-04T03:47:53.334370+00:00",
        "meta_object_name": "STARLINK-35829",
        "meta_object_id": "2025-254C",
        "meta_epoch": "2025-12-03T12:00:02.998944",
        "meta_mean_motion": 15.63069205,
        "meta_eccentricity": 0.000131,
        "meta_inclination": 53.1592,
        "meta_ra_of_asc_node": 320.9282,
        "meta_arg_of_pericenter": 67.9956,
        "meta_mean_anomaly": 343.0018,
        "meta_ephemeris_type": 0,
        "meta_classification_type": "U",
        "meta_norad_cat_id": 66350,
        "meta_element_set_no": 999,
        "meta_rev_at_epoch": 543,
        "meta_bstar": -0.025035,
        "meta_mean_motion_dot": -0.02035406,
        "meta_mean_motion_ddot": 0,
        "tle_line1": "1 66350U 25254C   25337.50003471 -.02035406  00000+0 -25035-1 0  9995",
        "tle_line2": "2 66350  53.1592 320.9282 0001310  67.9956 343.0018 15.63069205  5438"
      },
      "geometry": {
        "type": "Point",
        "coordinates": [
          121.13160359269402,
          20.848098061619908
        ]
      }
    }
  ]
}